ONEWEB-0269             
1 48987U 21060W   24023.60513107  .00000012  00000+0 -29099-5 0  9996
2 48987  87.9043  43.0576 0001753  93.1880 266.9452 13.16594861124419
ONEWEB-0270             
1 48988U 21060X   24023.54653727  .00000031  00000+0  48384-4 0  9990
2 48988  87.9042  43.0580 0002506  89.8241 270.3177 13.16587850124440
ONEWEB-0271             
1 48989U 21060Y   24023.60987992 -.00000113  00000+0 -32994-3 0  9994
2 48989  87.9043  43.0202 0002243  94.9420 265.1967 13.16596938124454
ONEWEB-0272             
1 48990U 21060Z   24024.08802169  .00000009  00000+0 -91685-5 0  9998
2 48990  87.9043  42.9521 0002118  96.5093 263.6279 13.16595416125767
ONEWEB-0273             
1 48991U 21060AA  24023.95820873  .00000730  00000+0  18768-2 0  9994
2 48991  87.9041  42.9652 0002427  78.6680 281.4723 13.16593102124421
ONEWEB-0274             
1 48992U 21060AB  24023.60354164  .00000028  00000+0  39811-4 0  9996
2 48992  87.9047  43.0403 0001903 109.3033 250.8304 13.16595907124415
ONEWEB-0275             
1 48993U 21060AC  24023.59244824  .00000055  00000+0  10956-3 0  9994
2 48993  87.9041  43.0354 0001986  90.5967 269.5391 13.16599580124349
ONEWEB-0276             
1 48994U 21060AD  24024.08167930 -.00000061  00000+0 -19437-3 0  9994
2 48994  87.9044  42.9339 0002210  89.6996 270.4388 13.16591413125723
ONEWEB-0277             
1 48995U 21060AE  24024.09435361  .00000037  00000+0  64166-4 0  9993
2 48995  87.9040  42.9698 0002429  94.8150 265.3258 13.16592648125708
ONEWEB-0278             
1 48996U 21060AF  24023.55288054  .00000009  00000+0 -95286-5 0  9997
2 48996  87.9043  43.0361 0001713  80.7246 279.4079 13.16593976124471
ONEWEB-0279             
1 48997U 21060AG  24024.09276980  .00000030  00000+0  43752-4 0  9996
2 48997  87.9041  42.9267 0001848  93.7434 266.3908 13.16592414125771
ONEWEB-0280             
1 48998U 21060AH  24023.95502263  .00000131  00000+0  30808-3 0  9996
2 48998  87.9043  42.9538 0002474  99.4349 260.7061 13.16593420124392
ONEWEB-0281             
1 48999U 21060AJ  24024.11335115  .00000118  00000+0  27558-3 0  9999
2 48999  87.9042  42.9253 0001737 101.1085 259.0242 13.16597419125794
ONEWEB-0282             
1 49000U 21060AK  24023.61145943 -.00000134  00000+0 -38546-3 0  9994
2 49000  87.9042  43.0422 0002244  87.2991 272.8397 13.16593071124391
ONEWEB-0283             
1 49001U 21060AL  24023.60038914 -.00000010  00000+0 -58808-4 0  9990
2 49001  87.9039  43.0527 0002150  95.5299 264.6077 13.16591921124401
ONEWEB-0284             
1 49002U 21060AM  24024.12601631  .00000111  00000+0  25662-3 0  9992
2 49002  87.9032  42.9395 0002082  85.9168 274.2200 13.16596646125762
ONEWEB-0285             
1 49075U 21075A   24023.85855459 -.00000046  00000+0 -16208-3 0  9991
2 49075  87.9027 164.8148 0001524  98.0147 262.1154 13.12443170120395
ONEWEB-0286             
1 49076U 21075B   24023.90604426 -.00008078  00000+0 -22496-1 0  9991
2 49076  87.9023 164.8131 0000748  96.7200 263.4013 13.12486582120736
ONEWEB-0287             
1 49077U 21075C   24023.92689061  .00000004  00000+0 -22685-4 0  9995
2 49077  87.9223 179.9117 0001263  84.6858 275.4418 13.17647939119334
ONEWEB-0288             
1 49078U 21075D   24023.89018069 -.00000131  00000+0 -39887-3 0  9999
2 49078  87.9023 164.8204 0001390  93.9764 266.1524 13.12444419120377
ONEWEB-0289             
1 49079U 21075E   24023.95537002  .00000041  00000+0  73618-4 0  9999
2 49079  87.9224 179.9312 0001647 100.5689 259.5628 13.17651352119914
ONEWEB-0290             
1 49080U 21075F   24023.93796185  .00000039  00000+0  66307-4 0  9992
2 49080  87.9222 179.8981 0001602  80.0806 280.0507 13.17648028118357
ONEWEB-0291             
1 49081U 21075G   24023.92215649  .00000032  00000+0  48360-4 0  9995
2 49081  87.9216 179.9293 0001349  82.3479 277.7805 13.17649271118341
ONEWEB-0293             
1 49082U 21075H   24023.94745061 -.00000003  00000+0 -39923-4 0  9999
2 49082  87.9223 179.9309 0001534  87.1583 272.9724 13.17648810119350
ONEWEB-0294             
1 49083U 21075J   24023.89654689  .00000073  00000+0  16804-3 0  9996
2 49083  87.9025 164.8179 0001522  73.5121 286.6175 13.12445669120753
ONEWEB-0295             
1 49084U 21075K   24023.94904155  .00000024  00000+0  29070-4 0  9995
2 49084  87.9224 179.9059 0001095  81.6271 278.4984 13.17648482119297
ONEWEB-0296             
1 49085U 21075L   24023.95530015 -.00000390  00000+0 -11200-2 0  9999
2 49085  87.9026 164.8051 0000991  74.9810 285.1429 13.12445671120764
ONEWEB-0297             
1 49086U 21075M   24023.91082865  .00000363  00000+0  97496-3 0  9991
2 49086  87.9034 164.8092 0001489 107.1929 252.9362 13.12446435120376
ONEWEB-0298             
1 49087U 21075N   24023.95221404  .00000068  00000+0  14203-3 0  9997
2 49087  87.9223 179.9249 0001209  96.3744 263.7525 13.17650419119353
ONEWEB-0299             
1 49088U 21075P   24023.95378662  .00000042  00000+0  73893-4 0  9990
2 49088  87.9219 179.9005 0001148  96.0387 264.0875 13.17649172119313
ONEWEB-0300             
1 49089U 21075Q   24023.90128856  .00000297  00000+0  78917-3 0  9997
2 49089  87.9023 164.8148 0001433 113.5586 246.5693 13.12445236121384
ONEWEB-0301             
1 49090U 21075R   24023.88540534 -.00000285  00000+0 -82691-3 0  9990
2 49090  87.9026 164.8204 0001726 110.2147 249.9167 13.12444136120744
ONEWEB-0302             
1 49091U 21075S   24023.94895781  .00001676  00000+0  46246-2 0  9993
2 49091  87.9026 164.8049 0001237  87.5078 272.6192 13.12433502120744
ONEWEB-0304             
1 49092U 21075T   24023.92848086  .00000013  00000+0 -18872-6 0  9991
2 49092  87.9224 179.9156 0001263  86.1025 274.0251 13.17648501118311
ONEWEB-0305             
1 49093U 21075U   24023.92056140  .00000017  00000+0  98894-5 0  9998
2 49093  87.9220 179.9081 0000966  94.2504 265.8738 13.17649817119316
ONEWEB-0308             
1 49094U 21075V   24023.94258084 -.00000184  00000+0 -54800-3 0  9996
2 49094  87.9023 164.8068 0001511 103.6747 256.4549 13.12442244120753
ONEWEB-0309             
1 49095U 21075W   24023.92530720  .00000009  00000+0 -10237-4 0  9997
2 49095  87.9223 179.9065 0001628  75.4176 284.7136 13.17648362118310
ONEWEB-0310             
1 49096U 21075X   24023.88063867 -.00000458  00000+0 -13088-2 0  9990
2 49096  87.9033 164.8134 0001592  91.5026 268.6285 13.12442757121374
ONEWEB-0311             
1 49097U 21075Y   24023.93163388 -.00000017  00000+0 -77946-4 0  9992
2 49097  87.9224 179.9058 0000967  99.2316 260.8925 13.17650113119364
ONEWEB-0312             
1 49098U 21075Z   24023.94587939  .00000042  00000+0  74296-4 0  9997
2 49098  87.9224 179.9358 0001174  78.8284 281.2979 13.17651500118340
ONEWEB-0313             
1 49099U 21075AA  24023.92371896  .00000035  00000+0  56031-4 0  9998
2 49099  87.9223 179.9422 0001222  87.9454 272.1818 13.17647648118334
ONEWEB-0314             
1 49100U 21075AB  24023.91739112  .00000045  00000+0  81995-4 0  9997
2 49100  87.9219 179.9071 0001106  78.6556 281.4700 13.17649069118302
ONEWEB-0315             
1 49101U 21075AC  24023.93149632  .00000120  00000+0  29763-3 0  9990
2 49101  87.9023 164.8039 0001524 108.4277 251.7017 13.12442079121367
ONEWEB-0316             
1 49102U 21075AD  24023.84817166  .00000023  00000+0  24689-4 0  9990
2 49102  87.9245 149.6423 0001324 109.8075 250.3200 13.18686391121846
ONEWEB-0317             
1 49103U 21075AE  24023.92511965  .00000373  00000+0  10010-2 0  9997
2 49103  87.9025 164.8124 0001608  94.3635 265.7677 13.12443365121377
ONEWEB-0318             
1 49104U 21075AF  24023.84501210  .00000016  00000+0  89368-5 0  9990
2 49104  87.9242 149.6402 0001266 112.6771 247.4495 13.18684827122804
ONEWEB-0319             
1 49105U 21075AG  24023.93321328  .00000015  00000+0  68104-5 0  9995
2 49105  87.9223 179.9316 0000821  98.2033 261.9191 13.17648633119332
ONEWEB-0323             
1 49106U 21075AH  24023.91558504 -.00001430  00000+0 -40108-2 0  9997
2 49106  87.9023 164.8023 0001873  86.0410 274.0932 13.12453171119740
ONEWEB-0329             
1 49107U 21075AJ  24023.94112006 -.00000016  00000+0 -74015-4 0  9999
2 49107  87.9224 179.9337 0001282  89.8432 270.2846 13.17648376118321
ONEWEB-0330             
1 49108U 21075AK  24023.94270649  .00000012  00000+0 -19721-5 0  9997
2 49108  87.9225 179.9333 0001379  87.9415 272.1875 13.17647577119355
ONEWEB-0292             
1 49186U 21083A   24023.80754323 -.00000059  00000+0 -19780-3 0  9998
2 49186  87.9015 134.4938 0001554 109.5231 250.6066 13.13471977116015
ONEWEB-0303             
1 49187U 21083B   24023.84184807  .00000071  00000+0  14639-3 0  9997
2 49187  87.9243 149.6395 0001324 110.6422 249.4852 13.18686918115896
ONEWEB-0306             
1 49188U 21083C   24023.90824971  .00000029  00000+0  41204-4 0  9990
2 49188  87.9243 149.6151 0001534 116.0252 244.1039 13.18687673115945
ONEWEB-0307             
1 49189U 21083D   24023.80277551 -.00001463  00000+0 -40406-2 0  9992
2 49189  87.9021 134.4929 0001722  96.2077 263.9248 13.13473018117302
ONEWEB-0320             
1 49190U 21083E   24023.83869150  .00000063  00000+0  12712-3 0  9992
2 49190  87.9243 149.6507 0001632 102.6794 257.4521 13.18685151115890
ONEWEB-0321             
1 49191U 21083F   24023.67969846  .00000070  00000+0  13919-3 0  9996
2 49191  87.9172  88.7115 0002152  99.5151 260.6225 13.20769796121265
ONEWEB-0322             
1 49192U 21083G   24023.79802611 -.00000261  00000+0 -75092-3 0  9990
2 49192  87.9018 134.4829 0002120  97.6879 262.4491 13.13470377116004
ONEWEB-0324             
1 49193U 21083H   24023.90033697  .00000039  00000+0  66836-4 0  9992
2 49193  87.9244 149.6215 0001422  92.3689 267.7606 13.18684739114646
ONEWEB-0325             
1 49194U 21083J   24023.90508668  .00000058  00000+0  11429-3 0  9996
2 49194  87.9245 149.6331 0001636 104.3285 255.8029 13.18689743115930
